{
    "links": {
        "self": "http://www.neowsapp.com/rest/v1/neo/3611404?api_key=iIulBulltgU6a56xZRHN4H3l9WmuAYTsLGpBGhQ2"
    },
    "id": "3611404",
    "neo_reference_id": "3611404",
    "name": "(2012 TT231)",
    "designation": "2012 TT231",
    "nasa_jpl_url": "http://ssd.jpl.nasa.gov/sbdb.cgi?sstr=3611404",
    "absolute_magnitude_h": 23.3,
    "estimated_diameter": {
        "kilometers": {
            "estimated_diameter_min": 0.058150704,
            "estimated_diameter_max": 0.130028927
        },
        "meters": {
            "estimated_diameter_min": 58.1507039646,
            "estimated_diameter_max": 130.0289270043
        },
        "miles": {
            "estimated_diameter_min": 0.0361331611,
            "estimated_diameter_max": 0.0807962044
        },
        "feet": {
            "estimated_diameter_min": 190.7831555951,
            "estimated_diameter_max": 426.6041048727
        }
    },
    "is_potentially_hazardous_asteroid": false,
    "close_approach_data": [
        {
            "close_approach_date": "2012-10-24",
            "close_approach_date_full": "2012-Oct-24 11:25",
            "epoch_date_close_approach": 1351077900000,
            "relative_velocity": {
                "kilometers_per_second": "18.1772249398",
                "kilometers_per_hour": "65438.009783212",
                "miles_per_hour": "40660.6344677963"
            },
            "miss_distance": {
                "astronomical": "0.0388750826",
                "lunar": "15.1224071314",
                "kilometers": "5815629.553034062",
                "miles": "3613664.6363995756"
            },
            "orbiting_body": "Earth"
        }
    ],
    "orbital_data": {
        "orbit_id": "10",
        "orbit_determination_date": "2017-04-06 08:48:33",
        "first_observation_date": "2012-10-14",
        "last_observation_date": "2012-10-23",
        "data_arc_in_days": 9,
        "observations_used": 65,
        "orbit_uncertainty": "8",
        "minimum_orbit_intersection": ".0166051",
        "jupiter_tisserand_invariant": "3.588",
        "epoch_osculation": "2456217.5",
        "eccentricity": ".6473545403381096",
        "semi_major_axis": "1.956171853688637",
        "inclination": "7.065387020438015",
        "ascending_node_longitude": "196.230093137301",
        "orbital_period": "999.3300238610968",
        "perihelion_distance": ".6898351225216816",
        "perihelion_argument": "274.2167638238303",
        "aphelion_distance": "3.222508584855592",
        "perihelion_time": "2456271.426713275600",
        "mean_anomaly": "340.5733678407781",
        "mean_motion": ".3602413531108304",
        "equinox": "J2000",
        "orbit_class": {
            "orbit_class_type": "APO",
            "orbit_class_description": "Near-Earth asteroid orbits which cross the Earth’s orbit similar to that of 1862 Apollo",
            "orbit_class_range": "a (semi-major axis) > 1.0 AU; q (perihelion) < 1.017 AU"
        }
    },
    "is_sentry_object": false
}